{
    "links": {
        "self": "http://www.neowsapp.com/rest/v1/neo/3512701?api_key=iIulBulltgU6a56xZRHN4H3l9WmuAYTsLGpBGhQ2"
    },
    "id": "3512701",
    "neo_reference_id": "3512701",
    "name": "(2010 FU9)",
    "designation": "2010 FU9",
    "nasa_jpl_url": "http://ssd.jpl.nasa.gov/sbdb.cgi?sstr=3512701",
    "absolute_magnitude_h": 26.9,
    "estimated_diameter": {
        "kilometers": {
            "estimated_diameter_min": 0.0110803882,
            "estimated_diameter_max": 0.0247765013
        },
        "meters": {
            "estimated_diameter_min": 11.0803882126,
            "estimated_diameter_max": 24.7765012606
        },
        "miles": {
            "estimated_diameter_min": 0.0068850319,
            "estimated_diameter_max": 0.0153953994
        },
        "feet": {
            "estimated_diameter_min": 36.3529808636,
            "estimated_diameter_max": 81.2877363957
        }
    },
    "is_potentially_hazardous_asteroid": false,
    "close_approach_data": [
        {
            "close_approach_date": "2010-03-18",
            "close_approach_date_full": "2010-Mar-18 11:42",
            "epoch_date_close_approach": 1268912520000,
            "relative_velocity": {
                "kilometers_per_second": "10.895540314",
                "kilometers_per_hour": "39223.9451305138",
                "miles_per_hour": "24372.2341284573"
            },
            "miss_distance": {
                "astronomical": "0.0038381017",
                "lunar": "1.4930215613",
                "kilometers": "574171.839163379",
                "miles": "356773.8370334702"
            },
            "orbiting_body": "Moon"
        },
        {
            "close_approach_date": "2010-03-18",
            "close_approach_date_full": "2010-Mar-18 20:14",
            "epoch_date_close_approach": 1268943240000,
            "relative_velocity": {
                "kilometers_per_second": "10.8204885135",
                "kilometers_per_hour": "38953.758648438",
                "miles_per_hour": "24204.3507557475"
            },
            "miss_distance": {
                "astronomical": "0.0038428255",
                "lunar": "1.4948591195",
                "kilometers": "574878.509581685",
                "miles": "357212.941669853"
            },
            "orbiting_body": "Earth"
        },
        {
            "close_approach_date": "2095-04-01",
            "close_approach_date_full": "2095-Apr-01 01:05",
            "epoch_date_close_approach": 3952458300000,
            "relative_velocity": {
                "kilometers_per_second": "13.8299454509",
                "kilometers_per_hour": "49787.8036232814",
                "miles_per_hour": "30936.2049791439"
            },
            "miss_distance": {
                "astronomical": "0.1119573735",
                "lunar": "43.5514182915",
                "kilometers": "16748584.606394445",
                "miles": "10407087.891335541"
            },
            "orbiting_body": "Earth"
        },
        {
            "close_approach_date": "2153-12-21",
            "close_approach_date_full": "2153-Dec-21 19:02",
            "epoch_date_close_approach": 5805630120000,
            "relative_velocity": {
                "kilometers_per_second": "15.2792710311",
                "kilometers_per_hour": "55005.3757118531",
                "miles_per_hour": "34178.2013694012"
            },
            "miss_distance": {
                "astronomical": "0.1712698926",
                "lunar": "66.6239882214",
                "kilometers": "25621611.128088762",
                "miles": "15920530.9101664356"
            },
            "orbiting_body": "Earth"
        }
    ],
    "orbital_data": {
        "orbit_id": "8",
        "orbit_determination_date": "2017-04-06 08:58:02",
        "first_observation_date": "2010-03-20",
        "last_observation_date": "2010-03-23",
        "data_arc_in_days": 3,
        "observations_used": 28,
        "orbit_uncertainty": "7",
        "minimum_orbit_intersection": ".0010323",
        "jupiter_tisserand_invariant": "3.418",
        "epoch_osculation": "2459000.5",
        "eccentricity": ".584455194764651",
        "semi_major_axis": "2.201201050463616",
        "inclination": "2.625964665162387",
        "ascending_node_longitude": "175.8186488479802",
        "orbital_period": "1192.85593018822",
        "perihelion_distance": ".9146976617987489",
        "perihelion_argument": "322.6020131957543",
        "aphelion_distance": "3.487704439128483",
        "perihelion_time": "2458821.333168770507",
        "mean_anomaly": "54.07196092191951",
        "mean_motion": ".301796713994787",
        "equinox": "J2000",
        "orbit_class": {
            "orbit_class_type": "APO",
            "orbit_class_description": "Near-Earth asteroid orbits which cross the Earth’s orbit similar to that of 1862 Apollo",
            "orbit_class_range": "a (semi-major axis) > 1.0 AU; q (perihelion) < 1.017 AU"
        }
    },
    "is_sentry_object": false
}